PELICAN-1               
1 58296U 23174AS  26196.82012713  .00006388  00000+0  50092-4 0  9999
2 58296  97.4016 298.9395 0004640 194.9237 165.1890 15.71950305150667
PELICAN-2               
1 62631U 25009Y   26196.81836925 -.00000006  00000+0  18189-5 0  9998
2 62631  97.2054 287.3630 0002456 120.4980 239.6510 15.40621070 83965
PELICAN-3               
1 65315U 25188A   26197.20453241  .00004608  00000+0  11254-3 0  9993
2 65315  97.1979 272.9253 0002118 111.4532 248.6941 15.41336624 49780
PELICAN-4               
1 65316U 25188B   26197.15945672  .00004419  00000+0  11131-3 0  9996
2 65316  97.1997 273.0311 0001646  81.0664 279.0769 15.40414012 49773
PELICAN-5               
1 66667U 25276B   26197.15383316  .00002675  00000+0  87566-4 0  9993
2 66667  97.4127 272.1257 0001615  23.9342 336.1974 15.32569206 34958
PELICAN-6               
1 66703U 25276AP  26196.10910711  .00009706  00000+0  32330-3 0  9993
2 66703  97.3749 271.0881 0002555  36.3400 323.8015 15.31319161 34801
PELICAN-7               
1 69017U 26100AP  26197.17946833  .00000574  00000+0  26913-4 0  9998
2 69017  97.3856  94.6109 0003385  89.3230 270.8395 15.23609118 11222
PELICAN-9               
1 69019U 26100AR  26197.15712789  .00001091  00000+0  49956-4 0  9996
2 69019  97.3651  94.4153 0001643 113.3486 246.7923 15.22571519 11210
