{"fetched_at":"2026-07-16T17:46:07.287Z","source":"https://celestrak.org/NORAD/elements/gp.php?GROUP=planet&FORMAT=JSON","constellation":"pelican","records":[{"OBJECT_NAME":"PELICAN-1","OBJECT_ID":"2023-174AS","EPOCH":"2026-07-15T19:40:58.984032","CLASSIFICATION_TYPE":"U","MEAN_MOTION":15.71950305,"ECCENTRICITY":0.000464,"INCLINATION":97.4016,"RA_OF_ASC_NODE":298.9395,"ARG_OF_PERICENTER":194.9237,"MEAN_ANOMALY":165.189,"EPHEMERIS_TYPE":0,"NORAD_CAT_ID":58296,"ELEMENT_SET_NO":999,"REV_AT_EPOCH":15066,"BSTAR":0.000050091985,"MEAN_MOTION_DOT":0.00006388,"MEAN_MOTION_DDOT":0},{"OBJECT_NAME":"PELICAN-2","OBJECT_ID":"2025-009Y","EPOCH":"2026-07-15T19:38:27.103200","CLASSIFICATION_TYPE":"U","MEAN_MOTION":15.4062107,"ECCENTRICITY":0.00024564,"INCLINATION":97.2054,"RA_OF_ASC_NODE":287.363,"ARG_OF_PERICENTER":120.498,"MEAN_ANOMALY":239.651,"EPHEMERIS_TYPE":0,"NORAD_CAT_ID":62631,"ELEMENT_SET_NO":999,"REV_AT_EPOCH":8396,"BSTAR":0.000001818871,"MEAN_MOTION_DOT":-6e-8,"MEAN_MOTION_DDOT":0},{"OBJECT_NAME":"PELICAN-3","OBJECT_ID":"2025-188A","EPOCH":"2026-07-16T04:54:31.600224","CLASSIFICATION_TYPE":"U","MEAN_MOTION":15.41336624,"ECCENTRICITY":0.00021185,"INCLINATION":97.1979,"RA_OF_ASC_NODE":272.9253,"ARG_OF_PERICENTER":111.4532,"MEAN_ANOMALY":248.6941,"EPHEMERIS_TYPE":0,"NORAD_CAT_ID":65315,"ELEMENT_SET_NO":999,"REV_AT_EPOCH":4978,"BSTAR":0.00011253823,"MEAN_MOTION_DOT":0.00004608,"MEAN_MOTION_DDOT":0},{"OBJECT_NAME":"PELICAN-4","OBJECT_ID":"2025-188B","EPOCH":"2026-07-16T03:49:37.060608","CLASSIFICATION_TYPE":"U","MEAN_MOTION":15.40414012,"ECCENTRICITY":0.00016464,"INCLINATION":97.1997,"RA_OF_ASC_NODE":273.0311,"ARG_OF_PERICENTER":81.0664,"MEAN_ANOMALY":279.0769,"EPHEMERIS_TYPE":0,"NORAD_CAT_ID":65316,"ELEMENT_SET_NO":999,"REV_AT_EPOCH":4977,"BSTAR":0.00011131397,"MEAN_MOTION_DOT":0.00004419,"MEAN_MOTION_DDOT":0},{"OBJECT_NAME":"PELICAN-5","OBJECT_ID":"2025-276B","EPOCH":"2026-07-16T03:41:31.185024","CLASSIFICATION_TYPE":"U","MEAN_MOTION":15.32569206,"ECCENTRICITY":0.00016155,"INCLINATION":97.4127,"RA_OF_ASC_NODE":272.1257,"ARG_OF_PERICENTER":23.9342,"MEAN_ANOMALY":336.1974,"EPHEMERIS_TYPE":0,"NORAD_CAT_ID":66667,"ELEMENT_SET_NO":999,"REV_AT_EPOCH":3495,"BSTAR":0.000087566071,"MEAN_MOTION_DOT":0.00002675,"MEAN_MOTION_DDOT":0},{"OBJECT_NAME":"PELICAN-6","OBJECT_ID":"2025-276AP","EPOCH":"2026-07-15T02:37:06.854304","CLASSIFICATION_TYPE":"U","MEAN_MOTION":15.31319161,"ECCENTRICITY":0.0002555,"INCLINATION":97.3749,"RA_OF_ASC_NODE":271.0881,"ARG_OF_PERICENTER":36.34,"MEAN_ANOMALY":323.8015,"EPHEMERIS_TYPE":0,"NORAD_CAT_ID":66703,"ELEMENT_SET_NO":999,"REV_AT_EPOCH":3480,"BSTAR":0.0003233,"MEAN_MOTION_DOT":0.00009706,"MEAN_MOTION_DDOT":0},{"OBJECT_NAME":"PELICAN-7","OBJECT_ID":"2026-100AP","EPOCH":"2026-07-16T04:18:26.063712","CLASSIFICATION_TYPE":"U","MEAN_MOTION":15.23609118,"ECCENTRICITY":0.00033855,"INCLINATION":97.3856,"RA_OF_ASC_NODE":94.6109,"ARG_OF_PERICENTER":89.323,"MEAN_ANOMALY":270.8395,"EPHEMERIS_TYPE":0,"NORAD_CAT_ID":69017,"ELEMENT_SET_NO":999,"REV_AT_EPOCH":1122,"BSTAR":0.000026912569,"MEAN_MOTION_DOT":0.00000574,"MEAN_MOTION_DDOT":0},{"OBJECT_NAME":"PELICAN-9","OBJECT_ID":"2026-100AR","EPOCH":"2026-07-16T03:46:15.849696","CLASSIFICATION_TYPE":"U","MEAN_MOTION":15.22571519,"ECCENTRICITY":0.00016439,"INCLINATION":97.3651,"RA_OF_ASC_NODE":94.4153,"ARG_OF_PERICENTER":113.3486,"MEAN_ANOMALY":246.7923,"EPHEMERIS_TYPE":0,"NORAD_CAT_ID":69019,"ELEMENT_SET_NO":999,"REV_AT_EPOCH":1121,"BSTAR":0.000049956269,"MEAN_MOTION_DOT":0.00001091,"MEAN_MOTION_DDOT":0}]}
